[{"OBJECT_NAME":"TIANPING 2B","OBJECT_ID":"2022-032C","EPOCH":"2026-03-09T22:22:05.849760","MEAN_MOTION":15.01267566,"ECCENTRICITY":0.00208707,"INCLINATION":97.6053,"RA_OF_ASC_NODE":116.3222,"ARG_OF_PERICENTER":130.0797,"MEAN_ANOMALY":230.2261,"EPHEMERIS_TYPE":0,"CLASSIFICATION_TYPE":"U","NORAD_CAT_ID":52155,"ELEMENT_SET_NO":999,"REV_AT_EPOCH":21538,"BSTAR":0.00026542484,"MEAN_MOTION_DOT":3.368e-5,"MEAN_MOTION_DDOT":0},{"OBJECT_NAME":"STARLINK-4630","OBJECT_ID":"2022-105AJ","EPOCH":"2026-03-09T22:50:44.378592","MEAN_MOTION":15.05647203,"ECCENTRICITY":0.00023198,"INCLINATION":97.6031,"RA_OF_ASC_NODE":311.4726,"ARG_OF_PERICENTER":85.4465,"MEAN_ANOMALY":274.7027,"EPHEMERIS_TYPE":0,"CLASSIFICATION_TYPE":"U","NORAD_CAT_ID":53680,"ELEMENT_SET_NO":999,"REV_AT_EPOCH":19334,"BSTAR":6.070959e-5,"MEAN_MOTION_DOT":8.15e-6,"MEAN_MOTION_DDOT":0}]
